{"type": "FeatureCollection", "features": [ {"type": "Feature", "properties": {"norad_id": 66446, "name": "STARLINK-34986", "group": "last-30-days", "lat": 1.3478447721534037, "lon": -85.4866176074694, "alt_km": 414.5022769912748, "timestamp": "2025-12-04T09:47:36.301798+00:00", "meta": {"OBJECT_NAME": "STARLINK-34986", "OBJECT_ID": "2025-259AA", "EPOCH": "2025-12-04T04:00:03.000096", "MEAN_MOTION": 15.50619077, "ECCENTRICITY": 0.0001667, "INCLINATION": 43.0005, "RA_OF_ASC_NODE": 97.3723, "ARG_OF_PERICENTER": 256.2229, "MEAN_ANOMALY": 12.8317, "EPHEMERIS_TYPE": 0, "CLASSIFICATION_TYPE": "U", "NORAD_CAT_ID": 66446, "ELEMENT_SET_NO": 999, "REV_AT_EPOCH": 490, "BSTAR": -0.0022087, "MEAN_MOTION_DOT": -0.00128007, "MEAN_MOTION_DDOT": 0}, "tle": {"line1": "1 66446U 25259AA  25338.16670139 -.00128007  00000+0 -22087-2 0  9993", "line2": "2 66446  43.0005  97.3723 0001667 256.2229  12.8317 15.50619077  4905"}}, "geometry": {"type": "Point", "coordinates": [-85.4866176074694, 1.3478447721534037]}}, {"type": "Feature", "properties": {"norad_id": 66447, "name": "STARLINK-34851", "group": "last-30-days", "lat": -1.2665391894134845, "lon": -82.68922299246819, "alt_km": 414.8466983430226, "timestamp": "2025-12-04T09:47:36.301810+00:00", "meta": {"OBJECT_NAME": "STARLINK-34851", "OBJECT_ID": "2025-259AB", "EPOCH": "2025-12-04T04:00:03.000096", "MEAN_MOTION": 15.50631845, "ECCENTRICITY": 0.0001444, "INCLINATION": 43.0005, "RA_OF_ASC_NODE": 97.3634, "ARG_OF_PERICENTER": 259.1425, "MEAN_ANOMALY": 13.7374, "EPHEMERIS_TYPE": 0, "CLASSIFICATION_TYPE": "U", "NORAD_CAT_ID": 66447, "ELEMENT_SET_NO": 999, "REV_AT_EPOCH": 479, "BSTAR": -0.0025479, "MEAN_MOTION_DOT": -0.00147317, "MEAN_MOTION_DDOT": 0}, "tle": {"line1": "1 66447U 25259AB  25338.16670139 -.00147317  00000+0 -25479-2 0  9997", "line2": "2 66447  43.0005  97.3634 0001444 259.1425  13.7374 15.50631845  4797"}}, "geometry": {"type": "Point", "coordinates": [-82.68922299246819, -1.2665391894134845]}}, {"type": "Feature", "properties": {"norad_id": 66448, "name": "STARLINK-35355", "group": "last-30-days", "lat": -2.5773514705416116, "lon": -81.28499994341541, "alt_km": 415.06467375664397, "timestamp": "2025-12-04T09:47:36.301820+00:00", "meta": {"OBJECT_NAME": "STARLINK-35355", "OBJECT_ID": "2025-259AC", "EPOCH": "2025-12-04T04:00:03.000096", "MEAN_MOTION": 15.50645285, "ECCENTRICITY": 0.0001494, "INCLINATION": 43.0006, "RA_OF_ASC_NODE": 97.3584, "ARG_OF_PERICENTER": 265.3608, "MEAN_ANOMALY": 9.4352, "EPHEMERIS_TYPE": 0, "CLASSIFICATION_TYPE": "U", "NORAD_CAT_ID": 66448, "ELEMENT_SET_NO": 999, "REV_AT_EPOCH": 490, "BSTAR": -0.0027968, "MEAN_MOTION_DOT": -0.00161462, "MEAN_MOTION_DDOT": 0}, "tle": {"line1": "1 66448U 25259AC  25338.16670139 -.00161462  00000+0 -27968-2 0  9990", "line2": "2 66448  43.0006  97.3584 0001494 265.3608   9.4352 15.50645285  4904"}}, "geometry": {"type": "Point", "coordinates": [-81.28499994341541, -2.5773514705416116]}}, {"type": "Feature", "properties": {"norad_id": 66449, "name": "STARLINK-34720", "group": "last-30-days", "lat": -3.878314705440699, "lon": -79.88709211020766, "alt_km": 415.09511813418703, "timestamp": "2025-12-04T09:47:36.301830+00:00", "meta": {"OBJECT_NAME": "STARLINK-34720", "OBJECT_ID": "2025-259AD", "EPOCH": "2025-12-04T04:00:03.000096", "MEAN_MOTION": 15.50632395, "ECCENTRICITY": 0.0001539, "INCLINATION": 43.0006, "RA_OF_ASC_NODE": 97.3531, "ARG_OF_PERICENTER": 259.8165, "MEAN_ANOMALY": 16.8984, "EPHEMERIS_TYPE": 0, "CLASSIFICATION_TYPE": "U", "NORAD_CAT_ID": 66449, "ELEMENT_SET_NO": 999, "REV_AT_EPOCH": 479, "BSTAR": -0.0024506, "MEAN_MOTION_DOT": -0.00141805, "MEAN_MOTION_DDOT": 0}, "tle": {"line1": "1 66449U 25259AD  25338.16670139 -.00141805  00000+0 -24506-2 0  9995", "line2": "2 66449  43.0006  97.3531 0001539 259.8165  16.8984 15.50632395  4791"}}, "geometry": {"type": "Point", "coordinates": [-79.88709211020766, -3.878314705440699]}}, {"type": "Feature", "properties": {"norad_id": 66450, "name": "STARLINK-35334", "group": "last-30-days", "lat": -5.175732362592181, "lon": -78.48601191813938, "alt_km": 415.3452396896728, "timestamp": "2025-12-04T09:47:36.301840+00:00", "meta": {"OBJECT_NAME": "STARLINK-35334", "OBJECT_ID": "2025-259AE", "EPOCH": "2025-12-04T04:00:03.000096", "MEAN_MOTION": 15.5058854, "ECCENTRICITY": 0.0001571, "INCLINATION": 43.0004, "RA_OF_ASC_NODE": 97.3479, "ARG_OF_PERICENTER": 265.5927, "MEAN_ANOMALY": 13.0566, "EPHEMERIS_TYPE": 0, "CLASSIFICATION_TYPE": "U", "NORAD_CAT_ID": 66450, "ELEMENT_SET_NO": 999, "REV_AT_EPOCH": 490, "BSTAR": -0.0012683, "MEAN_MOTION_DOT": -0.00074075, "MEAN_MOTION_DDOT": 0}, "tle": {"line1": "1 66450U 25259AE  25338.16670139 -.00074075  00000+0 -12683-2 0  9994", "line2": "2 66450  43.0004  97.3479 0001571 265.5927  13.0566 15.50588540  4908"}}, "geometry": {"type": "Point", "coordinates": [-78.48601191813938, -5.175732362592181]}}, {"type": "Feature", "properties": {"norad_id": 66454, "name": "VIASAT-3 F2", "group": "last-30-days", "lat": -1.6870268370183037, "lon": -84.40413856579659, "alt_km": 23065.14586241984, "timestamp": "2025-12-04T09:47:36.301856+00:00", "meta": {"OBJECT_NAME": "VIASAT-3 F2", "OBJECT_ID": "2025-261A", "EPOCH": "2025-12-03T13:51:54.074016", "MEAN_MOTION": 2.28102532, "ECCENTRICITY": 0.23421708, "INCLINATION": 5.5731, "RA_OF_ASC_NODE": 293.1816, "ARG_OF_PERICENTER": 184.1311, "MEAN_ANOMALY": 184.4414, "EPHEMERIS_TYPE": 0, "CLASSIFICATION_TYPE": "U", "NORAD_CAT_ID": 66454, "ELEMENT_SET_NO": 999, "REV_AT_EPOCH": 44, "BSTAR": 0, "MEAN_MOTION_DOT": -5.4e-07, "MEAN_MOTION_DDOT": 0}, "tle": {"line1": "1 66454U 25261A   25337.57770919 -.00000054  00000+0  00000+0 0  9994", "line2": "2 66454   5.5731 293.1816 2342170 184.1311 184.4414  2.28102532   445"}}, "geometry": {"type": "Point", "coordinates": [-84.40413856579659, -1.6870268370183037]}}, {"type": "Feature", "properties": {"norad_id": 66455, "name": "ATLAS 5 CENTAUR R/B", "group": "last-30-days", "lat": -2.359790421455581, "lon": -89.93831729776905, "alt_km": 22687.2005536978, "timestamp": "2025-12-04T09:47:36.301868+00:00", "meta": {"OBJECT_NAME": "ATLAS 5 CENTAUR R/B", "OBJECT_ID": "2025-261B", "EPOCH": "2025-12-03T13:50:16.729728", "MEAN_MOTION": 2.28259378, "ECCENTRICITY": 0.2329638, "INCLINATION": 6.1578, "RA_OF_ASC_NODE": 292.5325, "ARG_OF_PERICENTER": 184.6415, "MEAN_ANOMALY": 175.0756, "EPHEMERIS_TYPE": 0, "CLASSIFICATION_TYPE": "U", "NORAD_CAT_ID": 66455, "ELEMENT_SET_NO": 999, "REV_AT_EPOCH": 44, "BSTAR": 0, "MEAN_MOTION_DOT": -5.3e-07, "MEAN_MOTION_DDOT": 0}, "tle": {"line1": "1 66455U 25261B   25337.57658252 -.00000053  00000+0  00000+0 0  9999", "line2": "2 66455   6.1578 292.5325 2329638 184.6415 175.0756  2.28259378   440"}}, "geometry": {"type": "Point", "coordinates": [-89.93831729776905, -2.359790421455581]}}, {"type": "Feature", "properties": {"norad_id": 66456, "name": "STARLINK-35643", "group": "last-30-days", "lat": -23.475965798900102, "lon": -32.343778913687565, "alt_km": 402.38852678873445, "timestamp": "2025-12-04T09:47:36.301879+00:00", "meta": {"OBJECT_NAME": "STARLINK-35643", "OBJECT_ID": "2025-262A", "EPOCH": "2025-12-04T04:00:03.000096", "MEAN_MOTION": 15.56649415, "ECCENTRICITY": 0.0001672, "INCLINATION": 42.9998, "RA_OF_ASC_NODE": 121.2997, "ARG_OF_PERICENTER": 269.9867, "MEAN_ANOMALY": 32.0363, "EPHEMERIS_TYPE": 0, "CLASSIFICATION_TYPE": "U", "NORAD_CAT_ID": 66456, "ELEMENT_SET_NO": 999, "REV_AT_EPOCH": 426, "BSTAR": -0.033426, "MEAN_MOTION_DOT": -0.02168562, "MEAN_MOTION_DDOT": 0}, "tle": {"line1": "1 66456U 25262A   25338.16670139 -.02168562  00000+0 -33426-1 0  9998", "line2": "2 66456  42.9998 121.2997 0001672 269.9867  32.0363 15.56649415  4269"}}, "geometry": {"type": "Point", "coordinates": [-32.343778913687565, -23.475965798900102]}}, {"type": "Feature", "properties": {"norad_id": 66457, "name": "STARLINK-35466", "group": "last-30-days", "lat": -25.75119287908058, "lon": -28.958561262536637, "alt_km": 402.4017847224086, "timestamp": "2025-12-04T09:47:36.301890+00:00", "meta": {"OBJECT_NAME": "STARLINK-35466", "OBJECT_ID": "2025-262B", "EPOCH": "2025-12-04T04:00:03.000096", "MEAN_MOTION": 15.56649733, "ECCENTRICITY": 0.0001673, "INCLINATION": 42.9997, "RA_OF_ASC_NODE": 121.2902, "ARG_OF_PERICENTER": 265.0486, "MEAN_ANOMALY": 40.8095, "EPHEMERIS_TYPE": 0, "CLASSIFICATION_TYPE": "U", "NORAD_CAT_ID": 66457, "ELEMENT_SET_NO": 999, "REV_AT_EPOCH": 426, "BSTAR": -0.033432, "MEAN_MOTION_DOT": -0.02168938, "MEAN_MOTION_DDOT": 0}, "tle": {"line1": "1 66457U 25262B   25338.16670139 -.02168938  00000+0 -33432-1 0  9993", "line2": "2 66457  42.9997 121.2902 0001673 265.0486  40.8095 15.56649733  4262"}}, "geometry": {"type": "Point", "coordinates": [-28.958561262536637, -25.75119287908058]}}, {"type": "Feature", "properties": {"norad_id": 66458, "name": "STARLINK-35684", "group": "last-30-days", "lat": -24.624353014243212, "lon": -30.665171060058842, "alt_km": 402.2889627015802, "timestamp": "2025-12-04T09:47:36.301902+00:00", "meta": {"OBJECT_NAME": "STARLINK-35684", "OBJECT_ID": "2025-262C", "EPOCH": "2025-12-04T04:00:03.000096", "MEAN_MOTION": 15.56651977, "ECCENTRICITY": 0.0001691, "INCLINATION": 42.9999, "RA_OF_ASC_NODE": 121.2947, "ARG_OF_PERICENTER": 262.2106, "MEAN_ANOMALY": 41.7294, "EPHEMERIS_TYPE": 0, "CLASSIFICATION_TYPE": "U", "NORAD_CAT_ID": 66458, "ELEMENT_SET_NO": 999, "REV_AT_EPOCH": 426, "BSTAR": -0.033477, "MEAN_MOTION_DOT": -0.02171654, "MEAN_MOTION_DDOT": 0}, "tle": {"line1": "1 66458U 25262C   25338.16670139 -.02171654  00000+0 -33477-1 0  9992", "line2": "2 66458  42.9999 121.2947 0001691 262.2106  41.7294 15.56651977  4266"}}, "geometry": {"type": "Point", "coordinates": [-30.665171060058842, -24.624353014243212]}}]}